[{"OBJECT_NAME":"ION SCV-013","OBJECT_ID":"2023-174AW","EPOCH":"2026-03-09T22:59:29.755392","MEAN_MOTION":15.04632564,"ECCENTRICITY":0.00998876,"INCLINATION":97.6297,"RA_OF_ASC_NODE":125.3193,"ARG_OF_PERICENTER":172.5348,"MEAN_ANOMALY":187.7394,"EPHEMERIS_TYPE":0,"CLASSIFICATION_TYPE":"U","NORAD_CAT_ID":58300,"ELEMENT_SET_NO":999,"REV_AT_EPOCH":12661,"BSTAR":0.00023880169,"MEAN_MOTION_DOT":3.68e-5,"MEAN_MOTION_DDOT":0},{"OBJECT_NAME":"STARLINK-35322","OBJECT_ID":"2025-253P","EPOCH":"2026-03-09T09:52:15.199392","MEAN_MOTION":15.27571257,"ECCENTRICITY":0.00027471,"INCLINATION":42.9972,"RA_OF_ASC_NODE":213.9277,"ARG_OF_PERICENTER":285.6819,"MEAN_ANOMALY":74.3729,"EPHEMERIS_TYPE":0,"CLASSIFICATION_TYPE":"U","NORAD_CAT_ID":66332,"ELEMENT_SET_NO":999,"REV_AT_EPOCH":2020,"BSTAR":0.0011007604,"MEAN_MOTION_DOT":0.00030146,"MEAN_MOTION_DDOT":0}]
